NORAD_CAT_ID,OBJECT_NAME,OBJECT_TYPE,EPOCH,MEAN_MOTION,ECCENTRICITY,INCLINATION,RA_OF_ASC_NODE,ARG_OF_PERICENTER,MEAN_ANOMALY,BSTAR,MEAN_MOTION_DOT,MEAN_MOTION_DDOT,TLE_LINE0,TLE_LINE1,TLE_LINE2,SEMIMAJOR_AXIS,PERIOD,APOGEE,PERIGEE,DECAYED
53900.0,STARLINK-5045,PAYLOAD,2023-10-14 08:47:25,15.08846987,0.0001885,53.2169,302.2212,88.2659,271.8549,5.2806e-05,5.53e-06,0.0,0 STARLINK-5045,1 53900U 22119Q   23287.36627180  .00000553  00000-0  52806-4 0  9995,2 53900  53.2169 302.2212 0001885  88.2659 271.8549 15.08846987 59249,6917.859,95.437,541.028,538.42,0.0
53900.0,STARLINK-5045,PAYLOAD,2023-10-14 18:19:45,15.08838353,0.0001934,53.2171,300.4393,86.6409,273.4805,1.5012e-05,-4.9e-07,0.0,0 STARLINK-5045,1 53900U 22119Q   23287.76371708 -.00000049  00000-0  15012-4 0  9990,2 53900  53.2171 300.4393 0001934  86.6409 273.4805 15.08838353 58882,6917.885,95.438,541.088,538.413,0.0
53900.0,STARLINK-5045,PAYLOAD,2023-10-15 00:41:18,15.0882483,0.0001573,53.2172,299.246,92.2934,267.8239,-0.00014562,-2.604e-05,0.0,0 STARLINK-5045,1 53900U 22119Q   23288.02868346 -.00002604  00000-0 -14562-3 0  9997,2 53900  53.2172 299.2460 0001573  92.2934 267.8239 15.08824830 58926,6917.927,95.439,540.88,538.704,0.0
53900.0,STARLINK-5045,PAYLOAD,2023-10-15 07:02:50,15.0883122,0.0001597,53.2166,298.0574,90.8958,269.2217,-9.9436e-05,-1.87e-05,0.0,0 STARLINK-5045,1 53900U 22119Q   23288.29364247 -.00001870  00000-0 -99436-4 0  9995,2 53900  53.2166 298.0574 0001597  90.8958 269.2217 15.08831220 59382,6917.907,95.438,540.877,538.667,0.0
53900.0,STARLINK-5045,PAYLOAD,2023-10-15 18:10:32,15.0883729,0.0001576,53.2167,295.976,91.3949,268.7224,2.7997e-05,1.58e-06,0.0,0 STARLINK-5045,1 53900U 22119Q   23288.75732163  .00000158  00000-0  27997-4 0  9991,2 53900  53.2167 295.9760 0001576  91.3949 268.7224 15.08837290 59036,6917.889,95.438,540.844,538.663,0.0
53900.0,STARLINK-5045,PAYLOAD,2023-10-16 03:42:50,15.08857948,0.0001515,53.2167,294.1914,93.5573,266.5592,0.00039117,5.946e-05,0.0,0 STARLINK-5045,1 53900U 22119Q   23289.15475069  .00005946  00000-0  39117-3 0  9991,2 53900  53.2167 294.1914 0001515  93.5573 266.5592 15.08857948 59090,6917.826,95.436,540.739,538.642,0.0
53900.0,STARLINK-5045,PAYLOAD,2023-10-16 06:53:36,15.08862744,0.0001568,53.2165,293.5964,94.1896,265.9276,0.00046537,7.131e-05,0.0,0 STARLINK-5045,1 53900U 22119Q   23289.28722835  .00007131  00000-0  46537-3 0  9993,2 53900  53.2165 293.5964 0001568  94.1896 265.9276 15.08862744 59530,6917.811,95.436,540.761,538.591,0.0
53900.0,STARLINK-5045,PAYLOAD,2023-10-17 09:55:10,15.08837152,0.0001392,53.2158,288.5409,85.589,274.5261,0.00013984,1.938e-05,0.0,0 STARLINK-5045,1 53900U 22119Q   23290.41332095  .00001938  00000-0  13984-3 0  9994,2 53900  53.2158 288.5409 0001392  85.5890 274.5261 15.08837152 59280,6917.889,95.438,540.717,538.791,0.0
53900.0,STARLINK-5045,PAYLOAD,2023-10-18 00:13:38,15.08843959,0.0001393,53.2156,285.8641,88.1359,271.9792,-8.6697e-05,-1.668e-05,0.0,0 STARLINK-5045,1 53900U 22119Q   23291.00947658 -.00001668  00000-0 -86697-4 0  9991,2 53900  53.2156 285.8641 0001393  88.1359 271.9792 15.08843959 59794,6917.868,95.437,540.697,538.77,0.0
53900.0,STARLINK-5045,PAYLOAD,2023-10-18 06:35:11,15.08846641,0.0001393,53.2158,284.6749,84.8684,275.2468,-1.8795e-05,-5.87e-06,0.0,0 STARLINK-5045,1 53900U 22119Q   23291.27443447 -.00000587  00000-0 -18795-4 0  9990,2 53900  53.2158 284.6749 0001393  84.8684 275.2468 15.08846641 59413,6917.86,95.437,540.689,538.761,0.0
53900.0,STARLINK-5045,PAYLOAD,2023-10-18 16:07:29,15.08844825,0.0001389,53.2159,282.8906,81.8422,278.2728,-4.5378e-05,-1.01e-05,0.0,0 STARLINK-5045,1 53900U 22119Q   23291.67187490 -.00001010  00000-0 -45378-4 0  9996,2 53900  53.2159 282.8906 0001389  81.8422 278.2728 15.08844825 59897,6917.866,95.437,540.692,538.77,0.0
53900.0,STARLINK-5045,PAYLOAD,2023-10-19 04:50:35,15.088405,0.0001527,53.2165,280.5116,80.7062,279.4102,0.00023831,3.507e-05,0.0,0 STARLINK-5045,1 53900U 22119Q   23292.20179981  .00003507  00000-0  23831-3 0  9992,2 53900  53.2165 280.5116 0001527  80.7062 279.4102 15.08840500 59552,6917.879,95.438,540.8,538.688,0.0
53900.0,STARLINK-5045,PAYLOAD,2023-10-19 06:25:58,15.088461,0.0001536,53.2172,280.2158,81.0655,279.0511,0.00029515,4.413e-05,0.0,0 STARLINK-5045,1 53900U 22119Q   23292.26803712  .00004413  00000-0  29515-3 0  9996,2 53900  53.2172 280.2158 0001536  81.0655 279.0511 15.08846100 59984,6917.862,95.437,540.789,538.664,0.0
53900.0,STARLINK-5045,PAYLOAD,2023-10-19 15:58:17,15.08843932,0.0001687,53.2174,278.4322,78.1636,281.9545,0.00015507,2.181e-05,0.0,0 STARLINK-5045,1 53900U 22119Q   23292.66547829  .00002181  00000-0  15507-3 0  9990,2 53900  53.2174 278.4322 0001687  78.1636 281.9545 15.08843932 60049,6917.868,95.437,540.9,538.566,0.0
53900.0,STARLINK-5045,PAYLOAD,2023-10-19 23:55:13,15.08831332,0.000157,53.2174,276.9457,84.4222,275.6949,-5.424e-05,-1.151e-05,0.0,0 STARLINK-5045,1 53900U 22119Q   23292.99668541 -.00001151  00000-0 -54240-4 0  9997,2 53900  53.2174 276.9457 0001570  84.4222 275.6949 15.08831332 59679,6917.907,95.438,540.858,538.686,0.0
53900.0,STARLINK-5045,PAYLOAD,2023-10-20 04:41:23,15.08833625,0.0001947,53.2195,276.0572,98.2339,261.8874,-1.6949e-05,-5.58e-06,0.0,0 STARLINK-5045,1 53900U 22119Q   23293.19540525 -.00000558  00000-0 -16949-4 0  9995,2 53900  53.2195 276.0572 0001947  98.2339 261.8874 15.08833625 60124,6917.9,95.438,541.112,538.418,0.0
53900.0,STARLINK-5045,PAYLOAD,2023-10-21 02:56:47,15.0883458,0.0001779,53.2187,271.8935,99.0195,261.0998,5.5435e-06,-2e-06,0.0,0 STARLINK-5045,1 53900U 22119Q   23294.12276868 -.00000200  00000-0  55435-5 0  9992,2 53900  53.2187 271.8935 0001779  99.0195 261.0998 15.08834580 59840,6917.897,95.438,540.993,538.531,0.0
53900.0,STARLINK-5045,PAYLOAD,2023-10-21 07:42:56,15.08841627,0.0001624,53.2175,270.9966,83.1773,276.9404,0.00012872,1.761e-05,0.0,0 STARLINK-5045,1 53900U 22119Q   23294.32148630  .00001761  00000-0  12872-3 0  9997,2 53900  53.2175 270.9966 0001624  83.1773 276.9404 15.08841627 60294,6917.875,95.437,540.864,538.617,0.0
53900.0,STARLINK-5045,PAYLOAD,2023-10-21 15:39:51,15.08846747,0.0001587,53.2173,269.5097,83.6316,276.4857,0.00014217,1.976e-05,0.0,0 STARLINK-5045,1 53900U 22119Q   23294.65268359  .00001976  00000-0  14217-3 0  9997,2 53900  53.2173 269.5097 0001587  83.6316 276.4857 15.08846747 59920,6917.86,95.437,540.823,538.627,0.0
53900.0,STARLINK-5045,PAYLOAD,2023-10-21 22:01:24,15.08841456,0.0001673,53.217,268.3214,82.0505,278.0677,0.00035303,5.335e-05,0.0,0 STARLINK-5045,1 53900U 22119Q   23294.91764836  .00005335  00000-0  35303-3 0  9999,2 53900  53.2170 268.3214 0001673  82.0505 278.0677 15.08841456 60386,6917.876,95.437,540.898,538.584,0.0
53900.0,STARLINK-5045,PAYLOAD,2023-10-22 05:58:19,15.088541,0.0001548,53.2172,266.8324,88.8894,271.2275,0.00043039,6.571e-05,0.0,0 STARLINK-5045,1 53900U 22119Q   23295.24884190  .00006571  00000-0  43039-3 0  9990,2 53900  53.2172 266.8324 0001548  88.8894 271.2275 15.08854100 60434,6917.837,95.437,540.773,538.631,0.0
53900.0,STARLINK-5045,PAYLOAD,2023-10-22 15:30:39,15.08843651,0.0001617,53.2172,265.051,86.8074,273.3103,0.00017355,2.475e-05,0.0,0 STARLINK-5045,1 53900U 22119Q   23295.64628576  .00002475  00000-0  17355-3 0  9999,2 53900  53.2172 265.0510 0001617  86.8074 273.3103 15.08843651 60079,6917.869,95.437,540.853,538.616,0.0
53900.0,STARLINK-5045,PAYLOAD,2023-10-23 04:13:44,15.08840666,0.0001567,53.2169,262.6692,99.4402,260.6767,4.7483e-05,4.68e-06,0.0,0 STARLINK-5045,1 53900U 22119Q   23296.17620696  .00000468  00000-0  47483-4 0  9999,2 53900  53.2169 262.6692 0001567  99.4402 260.6767 15.08840666 60155,6917.878,95.438,540.827,538.659,0.0
53900.0,STARLINK-5045,PAYLOAD,2023-10-24 07:15:17,15.08849384,0.0001619,53.2163,257.6142,102.1307,257.9866,0.00039477,6.002e-05,0.0,0 STARLINK-5045,1 53900U 22119Q   23297.30228576  .00006002  00000-0  39477-3 0  9999,2 53900  53.2163 257.6142 0001619 102.1307 257.9866 15.08849384 60321,6917.852,95.437,540.837,538.597,0.0
53900.0,STARLINK-5045,PAYLOAD,2023-10-25 07:06:04,15.08836327,0.0001797,53.2179,253.1505,114.325,245.793,0.0002276,3.336e-05,0.0,0 STARLINK-5045,1 53900U 22119Q   23298.29589106  .00003336  00000-0  22760-3 0  9991,2 53900  53.2179 253.1505 0001797 114.3250 245.7930 15.08836327 60477,6917.892,95.438,541.0,538.513,0.0
53900.0,STARLINK-5045,PAYLOAD,2023-10-26 03:46:05,15.08850193,0.0001613,53.2171,249.2885,96.2554,263.8622,0.00016397,2.323e-05,0.0,0 STARLINK-5045,1 53900U 22119Q   23299.15700370  .00002323  00000-0  16397-3 0  9999,2 53900  53.2171 249.2885 0001613  96.2554 263.8622 15.08850193 60609,6917.849,95.437,540.83,538.598,0.0
53900.0,STARLINK-5045,PAYLOAD,2023-10-26 06:56:51,15.08854127,0.0001624,53.2175,248.6934,95.4572,264.6605,0.00021971,3.212e-05,0.0,0 STARLINK-5045,1 53900U 22119Q   23299.28948152  .00003212  00000-0  21971-3 0  9997,2 53900  53.2175 248.6934 0001624  95.4572 264.6605 15.08854127 61044,6917.837,95.437,540.826,538.579,0.0
53900.0,STARLINK-5045,PAYLOAD,2023-10-27 03:36:52,15.08848227,0.0001352,53.2157,244.8291,89.0753,271.0394,0.00014929,2.089e-05,0.0,0 STARLINK-5045,1 53900U 22119Q   23300.15060278  .00002089  00000-0  14929-3 0  9996,2 53900  53.2157 244.8291 0001352  89.0753 271.0394 15.08848227 60754,6917.855,95.437,540.656,538.785,0.0
53900.0,STARLINK-5045,PAYLOAD,2023-10-27 13:09:10,15.08847912,0.0001303,53.2162,243.0462,80.2631,279.8508,0.00012641,1.725e-05,0.0,0 STARLINK-5045,1 53900U 22119Q   23300.54804165  .00001725  00000-0  12641-3 0  9995,2 53900  53.2162 243.0462 0001303  80.2631 279.8508 15.08847912 61232,6917.856,95.437,540.623,538.82,0.0
53900.0,STARLINK-5045,PAYLOAD,2023-10-27 19:30:43,15.08836473,0.0002113,53.2171,241.8548,86.6589,273.4645,-3.3259e-05,-8.18e-06,0.0,0 STARLINK-5045,1 53900U 22119Q   23300.81300873 -.00000818  00000-0 -33259-4 0  9995,2 53900  53.2171 241.8548 0002113  86.6589 273.4645 15.08836473 60854,6917.891,95.438,541.218,538.294,0.0
